FENGYUN 1C DEB          
1 31616U 99025BZW 17344.58264846  .00001704  00000-0  53237-3 0  9999
2 31616  96.5886 104.7761 0108152 150.3124 210.4266 14.38274573551657
